*******************************************************************************
Ephemeris / WWW_USER Mon Mar 26 20:15:31 2018 Pasadena, USA      / Horizons    
*******************************************************************************
Target body name: Amalthea (505)                  {source: jup310}
Center body name: Jupiter Barycenter (5)          {source: DE431mx}
Center-site name: BODY CENTER
*******************************************************************************
Start time      : A.D. 2000-Jan-01 00:00:00.0000 TDB
Stop  time      : A.D. 2005-Jan-01 00:00:00.0000 TDB
Step-size       : 7200 minutes
*******************************************************************************
Center geodetic : 0.00000000,0.00000000,0.0000000 {E-lon(deg),Lat(deg),Alt(km)}
Center cylindric: 0.00000000,0.00000000,0.0000000 {E-lon(deg),Dxy(km),Dz(km)}
Center radii    : (undefined)                                                  
Output units    : AU-D                                                         
Output type     : GEOMETRIC cartesian states
Output format   : 2 (position and velocity)
Reference frame : ICRF/J2000.0                                                 
Coordinate systm: Ecliptic and Mean Equinox of Reference Epoch                 
*******************************************************************************
JDTDB
   X     Y     Z
   VX    VY    VZ
*******************************************************************************
$$SOE
2453014.500000000 = A.D. 2004-Jan-10 00:00:00.0000 TDB 
   9.227305739652199E-04 -7.901944952559882E-04 -7.744594969525696E-06
   9.949756175617924E-03  1.156065850614779E-02  5.132718354360381E-04
2453019.500000000 = A.D. 2004-Jan-15 00:00:00.0000 TDB 
   1.079376328278468E-03 -5.578872626755063E-04  5.632000367560390E-07
   7.054510944283598E-03  1.352403492251961E-02  5.071579446306601E-04
2453024.500000000 = A.D. 2004-Jan-20 00:00:00.0000 TDB 
   1.177388023210782E-03 -2.987355726524712E-04  8.036218487446758E-06
   3.790289434230652E-03  1.477539030726401E-02  4.860345978904749E-04
2453029.500000000 = A.D. 2004-Jan-25 00:00:00.0000 TDB 
   1.213686972270100E-03 -2.399410560246784E-05  1.486865433539307E-05
   3.261731113163464E-04  1.524931568946048E-02  4.536357769992784E-04
2453034.500000000 = A.D. 2004-Jan-30 00:00:00.0000 TDB 
   1.188026071363983E-03  2.543775358149582E-04  2.131708802629982E-05
  -3.156070878285374E-03  1.492406718150815E-02  4.115940870670409E-04
2453039.500000000 = A.D. 2004-Feb-04 00:00:00.0000 TDB 
   1.099240780658246E-03  5.183783354177502E-04  2.734193755507696E-05
  -6.471580996159222E-03  1.381513385113703E-02  3.591076949946366E-04
2453044.500000000 = A.D. 2004-Feb-09 00:00:00.0000 TDB 
   9.511251450358132E-04  7.533962552323531E-04  3.291337352884955E-05
  -9.446906762229744E-03  1.197970375251811E-02  2.937161670911841E-04
2453049.500000000 = A.D. 2004-Feb-14 00:00:00.0000 TDB 
   7.553267235928283E-04  9.505999362751814E-04  3.800521574222454E-05
  -1.192614351660043E-02  9.515608023338574E-03  2.125295246040771E-04
2453054.500000000 = A.D. 2004-Feb-19 00:00:00.0000 TDB 
   5.196922954437217E-04  1.098686432073905E-03  4.214698611184371E-05
  -1.377953330600918E-02  6.552926570297666E-03  1.135583280638371E-04
2453059.500000000 = A.D. 2004-Feb-24 00:00:00.0000 TDB 
   2.543550518660289E-04  1.186503768764528E-03  4.465677337003421E-05
  -1.490773836905539E-02  3.245054500154856E-03 -3.027744884257056E-06
2453064.500000000 = A.D. 2004-Feb-29 00:00:00.0000 TDB 
  -2.240005567584020E-05  1.213301328760633E-03  4.512187268365363E-05
  -1.525481075222357E-02 -2.313456277143537E-04 -1.337172927796711E-04
2453069.500000000 = A.D. 2004-Mar-05 00:00:00.0000 TDB 
  -2.971432211431857E-04  1.178140176449175E-03  4.299835487163118E-05
  -1.480195619927612E-02 -3.694409183551468E-03 -2.714873473856372E-04
2453074.500000000 = A.D. 2004-Mar-10 00:00:00.0000 TDB 
  -5.581337334684095E-04  1.078723370451079E-03  3.776309318312393E-05
  -1.356829330495498E-02 -6.962957003188290E-03 -4.061448865055641E-04
2453079.500000000 = A.D. 2004-Mar-15 00:00:00.0000 TDB 
  -7.898534041996110E-04  9.225645403771196E-04  2.949109845835465E-05
  -1.162393885240461E-02 -9.866628446581762E-03 -5.255461169434588E-04
2453084.500000000 = A.D. 2004-Mar-20 00:00:00.0000 TDB 
  -9.783011347937677E-04  7.200389085277734E-04  1.860830372361632E-05
  -9.069902138526899E-03 -1.225093038906989E-02 -6.169991416021580E-04
2453089.500000000 = A.D. 2004-Mar-25 00:00:00.0000 TDB 
  -1.116445020568731E-03  4.791602620882068E-04  5.677083888117468E-06
  -6.039880195393550E-03 -1.399257606663262E-02 -6.694697825788016E-04
2453094.500000000 = A.D. 2004-Mar-30 00:00:00.0000 TDB 
  -1.197561021670722E-03  2.113534206878522E-04 -8.328147498788745E-06
  -2.692156862863030E-03 -1.500160546514895E-02 -6.752640539179776E-04
2453099.500000000 = A.D. 2004-Apr-04 00:00:00.0000 TDB 
  -1.213127999510039E-03 -6.567311353082163E-05 -2.202654656157849E-05
   7.955377501880255E-04 -1.522041390149047E-02 -6.312408251067195E-04
2453104.500000000 = A.D. 2004-Apr-09 00:00:00.0000 TDB 
  -1.165303746723590E-03 -3.386381498844830E-04 -3.427697901334437E-05
   4.241045964958448E-03 -1.464176925760261E-02 -5.399844199499419E-04
2453109.500000000 = A.D. 2004-Apr-14 00:00:00.0000 TDB 
  -1.058704213734494E-03 -5.966240323082965E-04 -4.411126268953524E-05
   7.465274976257939E-03 -1.329605195564921E-02 -4.091929713673000E-04
2453114.500000000 = A.D. 2004-Apr-19 00:00:00.0000 TDB 
  -8.948668095570040E-04 -8.219083714712462E-04 -5.050330799332525E-05
   1.029600217596041E-02 -1.125275807929751E-02 -2.508674078141931E-04
2453119.500000000 = A.D. 2004-Apr-24 00:00:00.0000 TDB 
  -6.831081222703215E-04 -1.002544281881167E-03 -5.302548229298347E-05
   1.258516948794384E-02 -8.617305913226094E-03 -7.959642097846326E-05
2453124.500000000 = A.D. 2004-Apr-29 00:00:00.0000 TDB 
  -4.373634927537261E-04 -1.132611725712251E-03 -5.183034351200997E-05
   1.421442633341249E-02 -5.529542574085896E-03  8.930075212764897E-05
2453129.500000000 = A.D. 2004-May-04 00:00:00.0000 TDB 
  -1.686381326545855E-04 -1.203460415791106E-03 -4.720894872023560E-05
   1.509786155730883E-02 -2.152274205252437E-03  2.419358393472699E-04
2453134.500000000 = A.D. 2004-May-09 00:00:00.0000 TDB 
   1.111183248245936E-04 -1.209463916269355E-03 -3.978818964749644E-05
   1.518812428877566E-02  1.339944065504708E-03  3.676536274861072E-04
2453139.500000000 = A.D. 2004-May-14 00:00:00.0000 TDB 
   3.836020489189699E-04 -1.152540452156203E-03 -3.060289765017165E-05
   1.448259331391271E-02  4.761828455086946E-03  4.599316586537653E-04
2453144.500000000 = A.D. 2004-May-19 00:00:00.0000 TDB 
   6.343450649588893E-04 -1.036831224553873E-03 -2.061878720201299E-05
   1.301644907681718E-02  7.931876764661628E-03  5.167172351528957E-04
2453149.500000000 = A.D. 2004-May-24 00:00:00.0000 TDB 
   8.545316526565109E-04 -8.646016130777744E-04 -1.049704390904635E-05
   1.086582071640441E-02  1.068730838678372E-02  5.402905526301676E-04
2453154.500000000 = A.D. 2004-May-29 00:00:00.0000 TDB 
   1.029581794945432E-03 -6.463142544124123E-04 -9.684997487264231E-07
   8.145071713732330E-03  1.288180465918937E-02  5.357129365136353E-04
2453159.500000000 = A.D. 2004-Jun-03 00:00:00.0000 TDB 
   1.148546987728074E-03 -3.967917832014459E-04  7.458602021243860E-06
   4.998647539096644E-03  1.439874454364557E-02  5.094922344977944E-04
2453164.500000000 = A.D. 2004-Jun-08 00:00:00.0000 TDB 
   1.208785211130695E-03 -1.250531722645992E-04  1.485655147570204E-05
   1.588158979875361E-03  1.516022145032233E-02  4.680265754501486E-04
2453169.500000000 = A.D. 2004-Jun-13 00:00:00.0000 TDB 
   1.206518907725933E-03  1.545263990234669E-04  2.128588888691853E-05
  -1.905882614286233E-03  1.512448599321354E-02  4.162130163551970E-04
2453174.500000000 = A.D. 2004-Jun-18 00:00:00.0000 TDB 
   1.138840024650060E-03  4.242518704871746E-04  2.677907823788815E-05
  -5.298917766369984E-03  1.429441744348570E-02  3.567169758934568E-04
2453179.500000000 = A.D. 2004-Jun-23 00:00:00.0000 TDB 
   1.011275893573956E-03  6.716107717321550E-04  3.160480710554618E-05
  -8.414282756797873E-03  1.271241793848660E-02  2.897431568187928E-04
2453184.500000000 = A.D. 2004-Jun-28 00:00:00.0000 TDB 
   8.333145716605452E-04  8.854023745701168E-04  3.591168598349189E-05
  -1.108877616069623E-02  1.046570936223526E-02  2.138312846704290E-04
2453189.500000000 = A.D. 2004-Jul-03 00:00:00.0000 TDB 
   6.098632734514254E-04  1.052075855623676E-03  3.944001482378051E-05
  -1.318042576318009E-02  7.668678391365032E-03  1.265332886119900E-04
2453194.500000000 = A.D. 2004-Jul-08 00:00:00.0000 TDB 
   3.528617915617509E-04  1.161541563737922E-03  4.185554397430280E-05
  -1.457756656862394E-02  4.467288233002790E-03  2.611370933695650E-05
2453199.500000000 = A.D. 2004-Jul-13 00:00:00.0000 TDB 
   8.000176680818422E-05  1.212108411090560E-03  4.289293708639961E-05
  -1.521216394605237E-02  1.033889789079868E-03 -8.710311562872569E-05
2453204.500000000 = A.D. 2004-Jul-18 00:00:00.0000 TDB 
  -1.976901277106980E-04  1.199579274449152E-03  4.193053626701119E-05
  -1.504716529960537E-02 -2.453488913335377E-03 -2.099612734128414E-04
2453209.500000000 = A.D. 2004-Jul-23 00:00:00.0000 TDB 
  -4.668855192895937E-04  1.121824413986175E-03  3.839817420974837E-05
  -1.409178529621099E-02 -5.812312367583368E-03 -3.359971658903689E-04
2453214.500000000 = A.D. 2004-Jul-28 00:00:00.0000 TDB 
  -7.100413039596767E-04  9.864271564907420E-04  3.218918560866942E-05
  -1.239725558802578E-02 -8.864935329324536E-03 -4.556984520570150E-04
2453219.500000000 = A.D. 2004-Aug-02 00:00:00.0000 TDB 
  -9.146292093836516E-04  8.002923731662024E-04  2.329049031182877E-05
  -1.005096046156244E-02 -1.145005769165106E-02 -5.576359762144642E-04
